start=new Date('2021-09-30T00:00:00.000Z').valueOf();
sats=[{"ECCENTRICITY":"0.00018210","INCLINATION":"53.0541","GP_ID":"185793595","TIME_SYSTEM":"UTC","REV_AT_EPOCH":"2052","OBJECT_TYPE":"PAYLOAD","MEAN_MOTION":"15.06393624","EPHEMERIS_TYPE":"0","ELEMENT_SET_NO":"999","MEAN_MOTION_DDOT":"0.0000000000000","BSTAR":"0.00009158400000","ARG_OF_PERICENTER":"65.2426","CLASSIFICATION_TYPE":"U","RCS_SIZE":"LARGE","COUNTRY_CODE":"US","OBJECT_ID":"2021-041AL","NORAD_CAT_ID":"48587","MEAN_ANOMALY":"294.8752","LAUNCH_DATE":"2021-05-15","PERIOD":"95.593","MEAN_MOTION_DOT":"0.00001083","REF_FRAME":"TEME","FILE":"3134986","MEAN_ELEMENT_THEORY":"SGP4","OBJECT_NAME":"STARLINK-2242","TLE_LINE1":"1 48587U 21041AL  21272.29957735  .00001083  00000-0  91584-4 0  9994","TLE_LINE2":"2 48587  53.0541 224.7977 0001821  65.2426 294.8752 15.06393624 20522","EPOCH":"2021-09-29T07:11:23.483040","SITE":"AFETR","APOAPSIS":"548.494","CENTER_NAME":"EARTH","DECAY_DATE":null,"PERIAPSIS":"545.972","SEMIMAJOR_AXIS":"6925.368","RA_OF_ASC_NODE":"224.7977"},{"EPHEMERIS_TYPE":"0","BSTAR":"-0.00005465600000","ELEMENT_SET_NO":"999","MEAN_MOTION_DDOT":"0.0000000000000","ARG_OF_PERICENTER":"56.0709","CLASSIFICATION_TYPE":"U","RCS_SIZE":"LARGE","COUNTRY_CODE":"US","MEAN_ANOMALY":"304.0421","NORAD_CAT_ID":"48588","OBJECT_ID":"2021-041AM","PERIOD":"95.593","LAUNCH_DATE":"2021-05-15","ECCENTRICITY":"0.00014870","INCLINATION":"53.0558","GP_ID":"185802600","REV_AT_EPOCH":"2115","TIME_SYSTEM":"UTC","MEAN_MOTION":"15.06393804","OBJECT_TYPE":"PAYLOAD","TLE_LINE2":"2 48588  53.0558 213.7355 0001487  56.0709 304.0421 15.06393804 21156","APOAPSIS":"548.262","SITE":"AFETR","EPOCH":"2021-09-29T12:59:05.162208","CENTER_NAME":"EARTH","SEMIMAJOR_AXIS":"6925.368","DECAY_DATE":null,"PERIAPSIS":"546.203","RA_OF_ASC_NODE":"213.7355","MEAN_MOTION_DOT":"-0.00001095","REF_FRAME":"TEME","FILE":"3135382","OBJECT_NAME":"STARLINK-2244","MEAN_ELEMENT_THEORY":"SGP4","TLE_LINE1":"1 48588U 21041AM  21272.54103197 -.00001095  00000-0 -54656-4 0  9992"},{"ARG_OF_PERICENTER":"39.6459","CLASSIFICATION_TYPE":"U","EPHEMERIS_TYPE":"0","BSTAR":"-0.00007914800000","ELEMENT_SET_NO":"999","MEAN_MOTION_DDOT":"0.0000000000000","NORAD_CAT_ID":"48589","MEAN_ANOMALY":"320.4641","OBJECT_ID":"2021-041AN","PERIOD":"95.593","LAUNCH_DATE":"2021-05-15","RCS_SIZE":"LARGE","COUNTRY_CODE":"US","INCLINATION":"53.0543","ECCENTRICITY":"0.00015320","MEAN_MOTION":"15.06383136","OBJECT_TYPE":"PAYLOAD","GP_ID":"185794032","REV_AT_EPOCH":"2068","TIME_SYSTEM":"UTC","APOAPSIS":"548.326","EPOCH":"2021-09-29T09:42:43.969248","SITE":"AFETR","CENTER_NAME":"EARTH","TLE_LINE2":"2 48589  53.0543 214.3429 0001532  39.6459 320.4641 15.06383136 20680","SEMIMAJOR_AXIS":"6925.400","DECAY_DATE":null,"PERIAPSIS":"546.204","RA_OF_ASC_NODE":"214.3429","MEAN_MOTION_DOT":"-0.00001460","MEAN_ELEMENT_THEORY":"SGP4","FILE":"3134986","OBJECT_NAME":"STARLINK-2245","TLE_LINE1":"1 48589U 21041AN  21272.40467557 -.00001460  00000-0 -79148-4 0  9990","REF_FRAME":"TEME"},{"INCLINATION":"53.0550","ECCENTRICITY":"0.00017130","MEAN_MOTION":"15.06398740","OBJECT_TYPE":"PAYLOAD","TIME_SYSTEM":"UTC","REV_AT_EPOCH":"2052","GP_ID":"185793814","CLASSIFICATION_TYPE":"U","ARG_OF_PERICENTER":"60.8845","BSTAR":"0.00005383300000","ELEMENT_SET_NO":"999","MEAN_MOTION_DDOT":"0.0000000000000","EPHEMERIS_TYPE":"0","PERIOD":"95.592","LAUNCH_DATE":"2021-05-15","NORAD_CAT_ID":"48590","MEAN_ANOMALY":"299.2315","OBJECT_ID":"2021-041AP","COUNTRY_CODE":"US","RCS_SIZE":"LARGE","MEAN_MOTION_DOT":"0.00000520","TLE_LINE1":"1 48590U 21041AP  21272.29684989  .00000520  00000-0  53833-4 0  9996","FILE":"3134986","MEAN_ELEMENT_THEORY":"SGP4","OBJECT_NAME":"STARLINK-2246","REF_FRAME":"TEME","CENTER_NAME":"EARTH","APOAPSIS":"548.404","EPOCH":"2021-09-29T07:07:27.830496","SITE":"AFETR","TLE_LINE2":"2 48590  53.0550 224.8153 0001713  60.8845 299.2315 15.06398740 20527","RA_OF_ASC_NODE":"224.8153","DECAY_DATE":null,"SEMIMAJOR_AXIS":"6925.352","PERIAPSIS":"546.031"},{"RCS_SIZE":"LARGE","COUNTRY_CODE":"US","OBJECT_ID":"2021-041AQ","MEAN_ANOMALY":"313.2439","NORAD_CAT_ID":"48591","LAUNCH_DATE":"2021-05-15","PERIOD":"95.592","EPHEMERIS_TYPE":"0","MEAN_MOTION_DDOT":"0.0000000000000","ELEMENT_SET_NO":"999","BSTAR":"0.00010058000000","ARG_OF_PERICENTER":"46.8684","CLASSIFICATION_TYPE":"U","GP_ID":"185793268","TIME_SYSTEM":"UTC","REV_AT_EPOCH":"2159","OBJECT_TYPE":"PAYLOAD","MEAN_MOTION":"15.06403309","ECCENTRICITY":"0.00016040","INCLINATION":"53.0552","SEMIMAJOR_AXIS":"6925.338","DECAY_DATE":null,"PERIAPSIS":"546.093","RA_OF_ASC_NODE":"214.0763","TLE_LINE2":"2 48591  53.0552 214.0763 0001604  46.8684 313.2439 15.06403309 21592","EPOCH":"2021-09-29T11:07:37.142976","SITE":"AFETR","APOAPSIS":"548.314","CENTER_NAME":"EARTH","REF_FRAME":"TEME","FILE":"3134986","OBJECT_NAME":"STARLINK-2248","MEAN_ELEMENT_THEORY":"SGP4","TLE_LINE1":"1 48591U 21041AQ  21272.46362434  .00001217  00000-0  10058-3 0  9999","MEAN_MOTION_DOT":"0.00001217"},{"APOAPSIS":"548.179","SITE":"AFETR","EPOCH":"2021-09-29T06:19:40.696608","CENTER_NAME":"EARTH","TLE_LINE2":"2 48592  53.0557 224.9700 0001394  60.0432 300.0695 15.06399961 20522","PERIAPSIS":"546.248","DECAY_DATE":null,"SEMIMAJOR_AXIS":"6925.349","RA_OF_ASC_NODE":"224.9700","MEAN_MOTION_DOT":"0.00000124","FILE":"3134986","OBJECT_NAME":"STARLINK-2249","MEAN_ELEMENT_THEORY":"SGP4","TLE_LINE1":"1 48592U 21041AR  21272.26366547  .00000124  00000-0  27188-4 0  9996","REF_FRAME":"TEME","ARG_OF_PERICENTER":"60.0432","CLASSIFICATION_TYPE":"U","EPHEMERIS_TYPE":"0","BSTAR":"0.00002718800000","MEAN_MOTION_DDOT":"0.0000000000000","ELEMENT_SET_NO":"999","NORAD_CAT_ID":"48592","MEAN_ANOMALY":"300.0695","OBJECT_ID":"2021-041AR","PERIOD":"95.592","LAUNCH_DATE":"2021-05-15","RCS_SIZE":"MEDIUM","COUNTRY_CODE":"US","INCLINATION":"53.0557","ECCENTRICITY":"0.00013940","MEAN_MOTION":"15.06399961","OBJECT_TYPE":"PAYLOAD","GP_ID":"185793705","REV_AT_EPOCH":"2052","TIME_SYSTEM":"UTC"},{"RA_OF_ASC_NODE":"223.4425","SEMIMAJOR_AXIS":"6925.331","DECAY_DATE":null,"PERIAPSIS":"546.161","CENTER_NAME":"EARTH","SITE":"AFETR","EPOCH":"2021-09-29T14:27:58.668768","APOAPSIS":"548.232","TLE_LINE2":"2 48593  53.0552 223.4425 0001495  52.9681 307.1444 15.06405585 20872","TLE_LINE1":"1 48593U 21041AS  21272.60276237  .00002445  00000-0  18296-3 0  9998","FILE":"3135376","OBJECT_NAME":"STARLINK-2250","MEAN_ELEMENT_THEORY":"SGP4","REF_FRAME":"TEME","MEAN_MOTION_DOT":"0.00002445","LAUNCH_DATE":"2021-05-15","PERIOD":"95.592","OBJECT_ID":"2021-041AS","NORAD_CAT_ID":"48593","MEAN_ANOMALY":"307.1444","COUNTRY_CODE":"US","RCS_SIZE":"LARGE","CLASSIFICATION_TYPE":"U","ARG_OF_PERICENTER":"52.9681","MEAN_MOTION_DDOT":"0.0000000000000","ELEMENT_SET_NO":"999","BSTAR":"0.00018296000000","EPHEMERIS_TYPE":"0","OBJECT_TYPE":"PAYLOAD","MEAN_MOTION":"15.06405585","TIME_SYSTEM":"UTC","REV_AT_EPOCH":"2087","GP_ID":"185803088","INCLINATION":"53.0552","ECCENTRICITY":"0.00014950"},{"GP_ID":"185793487","REV_AT_EPOCH":"364","TIME_SYSTEM":"UTC","OBJECT_TYPE":"PAYLOAD","MEAN_MOTION":"15.09339998","ECCENTRICITY":"0.00017100","INCLINATION":"53.0533","RCS_SIZE":"LARGE","COUNTRY_CODE":"US","OBJECT_ID":"2021-041AT","MEAN_ANOMALY":"125.2679","NORAD_CAT_ID":"48594","LAUNCH_DATE":"2021-05-15","PERIOD":"95.406","EPHEMERIS_TYPE":"0","MEAN_MOTION_DDOT":"0.0000000000000","ELEMENT_SET_NO":"999","BSTAR":"0.00150820000000","ARG_OF_PERICENTER":"60.0666","CLASSIFICATION_TYPE":"U","REF_FRAME":"TEME","FILE":"3134986","OBJECT_NAME":"STARLINK-2251","MEAN_ELEMENT_THEORY":"SGP4","TLE_LINE1":"1 48594U 21041AT  21272.58334491  .00024131  00000-0  15082-2 0  9998","MEAN_MOTION_DOT":"0.00024131","SEMIMAJOR_AXIS":"6916.353","DECAY_DATE":null,"PERIAPSIS":"537.035","RA_OF_ASC_NODE":"193.4454","TLE_LINE2":"2 48594  53.0533 193.4454 0001710  60.0666 125.2679 15.09339998  3645","EPOCH":"2021-09-29T14:00:01.000224","SITE":"AFETR","APOAPSIS":"539.400","CENTER_NAME":"EARTH"},{"INCLINATION":"53.0552","ECCENTRICITY":"0.00018460","OBJECT_TYPE":"PAYLOAD","MEAN_MOTION":"15.06405244","GP_ID":"185803145","REV_AT_EPOCH":"2184","TIME_SYSTEM":"UTC","ARG_OF_PERICENTER":"71.9044","CLASSIFICATION_TYPE":"U","EPHEMERIS_TYPE":"0","MEAN_MOTION_DDOT":"0.0000000000000","ELEMENT_SET_NO":"999","BSTAR":"-0.00009667500000","OBJECT_ID":"2021-041AU","NORAD_CAT_ID":"48595","MEAN_ANOMALY":"288.2146","LAUNCH_DATE":"2021-05-15","PERIOD":"95.592","RCS_SIZE":"LARGE","COUNTRY_CODE":"US","MEAN_MOTION_DOT":"-0.00001722","FILE":"3135385","OBJECT_NAME":"STARLINK-2252","MEAN_ELEMENT_THEORY":"SGP4","TLE_LINE1":"1 48595U 21041AU  21272.58435018 -.00001722  00000-0 -96675-4 0  9998","REF_FRAME":"TEME","SITE":"AFETR","EPOCH":"2021-09-29T14:01:27.855552","APOAPSIS":"548.476","CENTER_NAME":"EARTH","TLE_LINE2":"2 48595  53.0552 223.5268 0001846  71.9044 288.2146 15.06405244 21842","PERIAPSIS":"545.919","DECAY_DATE":null,"SEMIMAJOR_AXIS":"6925.332","RA_OF_ASC_NODE":"223.5268"},{"COUNTRY_CODE":"US","RCS_SIZE":"LARGE","LAUNCH_DATE":"2021-05-15","PERIOD":"95.592","OBJECT_ID":"2021-041AV","NORAD_CAT_ID":"48596","MEAN_ANOMALY":"287.9128","ELEMENT_SET_NO":"999","MEAN_MOTION_DDOT":"0.0000000000000","BSTAR":"0.00005903900000","EPHEMERIS_TYPE":"0","CLASSIFICATION_TYPE":"U","ARG_OF_PERICENTER":"72.2008","REV_AT_EPOCH":"2098","TIME_SYSTEM":"UTC","GP_ID":"185793378","OBJECT_TYPE":"PAYLOAD","MEAN_MOTION":"15.06397703","ECCENTRICITY":"0.00013540","INCLINATION":"53.0550","RA_OF_ASC_NODE":"224.9157","SEMIMAJOR_AXIS":"6925.356","DECAY_DATE":null,"PERIAPSIS":"546.283","TLE_LINE2":"2 48596  53.0550 224.9157 0001354  72.2008 287.9128 15.06397703 20981","CENTER_NAME":"EARTH","SITE":"AFETR","EPOCH":"2021-09-29T06:35:36.075840","APOAPSIS":"548.158","REF_FRAME":"TEME","TLE_LINE1":"1 48596U 21041AV  21272.27472310  .00000598  00000-0  59039-4 0  9992","OBJECT_NAME":"STARLINK-2253","FILE":"3134986","MEAN_ELEMENT_THEORY":"SGP4","MEAN_MOTION_DOT":"0.00000598"}];
